QZS-1R                  
1 49336U 21096A   24102.83023433 -.00000248  00000+0  00000+0 0  9991
2 49336  35.8093  91.5290 0751765 270.2054 272.4965  1.00281958  9011
